OBJECT_NAME,OBJECT_ID,EPOCH,MEAN_MOTION,ECCENTRICITY,INCLINATION,RA_OF_ASC_NODE,ARG_OF_PERICENTER,MEAN_ANOMALY,EPHEMERIS_TYPE,CLASSIFICATION_TYPE,NORAD_CAT_ID,ELEMENT_SET_NO,REV_AT_EPOCH,BSTAR,MEAN_MOTION_DOT,MEAN_MOTION_DDOT
STARLINK-33612,2025-057U,2026-07-22T18:35:58.737696,15.27611312,.00018051,43.0036,348.2476,283.1102,76.9548,0,U,63325,999,7643,.10818373E-2,.29656E-3,0
STARLINK-33672,2025-057V,2026-07-22T17:38:36.521952,15.27606126,.00023564,43.0006,347.9241,252.3538,107.7056,0,U,63326,999,7643,.80098732E-3,.21863E-3,0
STARLINK-33625,2025-057W,2026-07-22T16:50:03.261696,15.27611069,.00018351,43.0031,340.7710,268.3265,91.7376,0,U,63327,999,7651,.83986323E-3,.22943E-3,0
STARLINK-33699,2025-057X,2026-07-22T16:33:23.715648,15.27597428,.00015369,43.0056,340.6781,312.3125,47.7596,0,U,63328,999,7647,.55692462E-3,.15103E-3,0
STARLINK-33674,2025-057Y,2026-07-22T16:37:45.946560,15.27612897,.00019902,43.0010,348.4923,275.4871,84.5753,0,U,63329,999,7642,.95494274E-3,.26136E-3,0
STARLINK-32840,2025-063A,2026-07-22T20:01:14.803968,15.34409775,.00015075,53.1592,140.2801,104.3250,255.7920,0,U,63363,999,7549,.63725108E-3,.21222E-3,0
STARLINK-32543,2025-063B,2026-07-22T20:28:31.286496,15.34402386,.00021806,53.1575,140.3989,106.2402,253.8840,0,U,63364,999,7550,.55632918E-3,.18468E-3,0
STARLINK-33741,2025-063C,2026-07-22T19:37:08.410080,15.34402344,.00013059,53.1588,140.8695,83.7722,276.3429,0,U,63365,999,7550,.52223019E-3,.1731E-3,0
STARLINK-33742,2025-063D,2026-07-22T20:09:46.519200,15.30202241,.00019734,53.1588,144.5570,107.8754,252.2462,0,U,63366,999,7540,.84117693E-3,.24639E-3,0
STARLINK-33734,2025-063E,2026-07-22T21:20:49.873632,15.34409219,.00019646,53.1593,154.0838,101.7264,258.3959,0,U,63367,999,7527,.1245748E-2,.41962E-3,0
STARLINK-33578,2025-063F,2026-07-22T02:22:21.241344,15.34407803,.00013807,53.1591,144.2075,98.4425,261.6734,0,U,63368,999,7533,.71352594E-3,.23814E-3,0
STARLINK-33626,2025-063G,2026-07-22T06:36:28.144800,15.34417633,.00010989,53.1576,143.1748,83.5040,276.6087,0,U,63369,999,7537,.11131865E-2,.37444E-3,0
STARLINK-33657,2025-063H,2026-07-22T21:01:49.086912,15.34424509,.00013038,53.1573,140.5228,112.5231,247.5910,0,U,63370,999,7546,.39102284E-3,.12868E-3,0
STARLINK-33648,2025-063J,2026-07-22T13:27:32.217984,15.31719864,.0001328,53.1599,145.6619,94.9189,265.1964,0,U,63371,999,7541,.66103096E-3,.20216E-3,0
STARLINK-33614,2025-063K,2026-07-22T02:31:26.556672,15.34408644,.00014222,53.1593,144.2457,82.2364,277.8800,0,U,63372,999,7539,.10013574E-2,.33617E-3,0
STARLINK-33617,2025-063L,2026-07-22T19:52:17.112576,15.34392751,.00018429,53.1586,140.9294,107.6509,252.4695,0,U,63373,999,7545,.53612846E-3,.17777E-3,0
STARLINK-33618,2025-063M,2026-07-22T20:10:20.250624,15.34410463,.00015105,53.1581,140.3006,101.5512,258.5660,0,U,63374,999,7551,.56210065E-3,.18669E-3,0
STARLINK-33621,2025-063N,2026-07-22T20:19:25.672224,15.34405211,.00016878,53.1585,140.3438,102.2476,257.8716,0,U,63375,999,7546,.7970863E-3,.26655E-3,0
STARLINK-33539,2025-063P,2026-07-22T04:24:13.089312,15.34407801,.00018511,53.1595,157.4981,108.0277,252.0928,0,U,63376,999,7516,.40421732E-3,.13308E-3,0
STARLINK-33634,2025-063Q,2026-07-22T19:31:46.339392,15.34413105,.00013637,53.1594,144.3951,82.1651,277.9506,0,U,63377,999,7545,.87136272E-3,.29191E-3,0
STARLINK-33640,2025-063R,2026-07-22T02:58:13.679616,15.30205426,.00013274,53.1583,147.9025,73.6647,286.4499,0,U,63378,999,7534,.10265322E-2,.30172E-3,0
STARLINK-33636,2025-063S,2026-07-22T20:22:22.067328,15.42628304,.00041871,53.1570,140.3653,106.3065,253.8401,0,U,63379,999,7546,.18703047E-2,.83179E-3,0
STARLINK-33653,2025-063T,2026-07-22T20:00:01.999872,15.31682254,.00012471,53.1590,144.4399,106.2191,291.9427,0,U,63380,999,590,.11459294E-2,.35343E-3,0
STARLINK-33643,2025-063U,2026-07-22T13:19:36.249024,15.34426499,.00014145,53.1603,145.6213,94.7478,265.3686,0,U,63381,999,7541,.36725112E-3,.12062E-3,0
STARLINK-33748,2025-063W,2026-07-22T04:30:16.976736,15.34409449,.00013383,53.1581,157.5336,92.4384,267.6772,0,U,63383,999,7521,.68622002E-3,.22887E-3,0
STARLINK-33658,2025-063X,2026-07-22T03:53:06.908928,15.34411282,.00012105,53.1581,143.8809,87.1055,273.0086,0,U,63384,999,7540,.89035157E-3,.29836E-3,0
STARLINK-33616,2025-063Y,2026-07-22T04:39:22.505472,15.34405884,.00014009,53.1605,157.5817,73.4709,286.6448,0,U,63385,999,7516,.66722548E-3,.22238E-3,0
STARLINK-33571,2025-063Z,2026-07-22T06:42:37.981728,15.34414107,.00013705,53.1576,155.2535,64.2167,295.8977,0,U,63386,999,7520,.12497282E-2,.42104E-3,0
STARLINK-33533,2025-063AA,2026-07-22T13:09:49.880736,15.34414565,.00013838,53.1580,142.0319,97.3871,262.7289,0,U,63387,999,7541,.93337906E-3,.31306E-3,0
STARLINK-33629,2025-063AB,2026-07-22T19:15:55.832256,15.34419097,.00030729,53.1577,140.7753,101.4198,258.7149,0,U,63388,999,7550,.1171213E-2,.3943E-3,0
STARLINK-33656,2025-063AC,2026-07-22T20:03:24.341760,15.31704469,.00020799,53.1586,143.8185,100.2770,259.8466,0,U,63389,999,7546,.53652137E-3,.16323E-3,0
STARLINK-33531,2025-065A,2026-07-21T00:44:14.309088,15.27579994,.00009738,43.0017,73.9652,265.7600,94.3141,0,U,63399,999,7323,.36718619E-3,.9856E-4,0
STARLINK-33652,2025-065B,2026-07-22T21:37:46.067232,15.27594064,.00011795,42.9996,63.0575,259.1277,100.9442,0,U,63400,999,7352,.7263711E-3,.19788E-3,0
STARLINK-33707,2025-065C,2026-07-22T15:52:35.436000,15.27605536,.0002246,43.0051,64.7042,255.7934,104.2668,0,U,63401,999,7348,.56661353E-3,.15375E-3,0
STARLINK-33668,2025-065D,2026-07-22T21:00:58.244832,15.27596893,.00011741,43.0021,63.7310,250.1311,109.9414,0,U,63402,999,7351,.98004223E-3,.26818E-3,0
STARLINK-33676,2025-065E,2026-07-22T14:16:35.548896,15.27593775,.00010799,43.0003,65.0608,297.5949,62.4793,0,U,63403,999,7347,.66137995E-3,.1799E-3,0
STARLINK-33711,2025-065F,2026-07-21T22:03:34.180704,15.27589465,.00016475,43.0002,68.5895,273.0206,87.0458,0,U,63404,999,7337,.55599419E-3,.15073E-3,0
STARLINK-33708,2025-065G,2026-07-22T15:56:18.289248,15.27594185,.00006559,43.0011,64.7174,282.8392,77.2386,0,U,63405,999,7348,.71229766E-3,.19399E-3,0
STARLINK-33690,2025-065H,2026-07-22T20:00:01.999872,15.51558456,.00019271,43.0014,59.2366,289.5277,7.6626,0,U,63406,999,590,.29440378E-1,.2005799E-1,0
STARLINK-33694,2025-065J,2026-07-22T22:01:49.243584,15.27595276,.00023088,43.0031,63.1787,278.4201,81.6389,0,U,63407,999,7352,.90040592E-3,.2461E-3,0
STARLINK-33692,2025-065K,2026-07-21T01:33:30.247488,15.27585267,.00012245,43.0000,77.6676,270.0967,89.9744,0,U,63408,999,7319,.18244206E-3,.4762E-4,0
STARLINK-33693,2025-065L,2026-07-22T14:36:56.779200,15.27618962,.00013331,42.9941,65.1616,75.6753,284.4246,0,U,63409,999,7347,.79646526E-3,.21746E-3,0
STARLINK-33677,2025-065M,2026-07-22T14:25:50.588544,15.27598078,.00014212,43.0035,65.1011,277.6866,82.3824,0,U,63410,999,7347,.75813917E-3,.2067E-3,0
STARLINK-33647,2025-065N,2026-07-21T00:20:51.283680,15.27603237,.00015414,43.0003,81.6171,263.9805,96.0871,0,U,63411,999,7314,.71255642E-3,.19411E-3,0
STARLINK-33645,2025-065P,2026-07-22T22:04:48.175392,15.27600847,.00013579,42.9982,66.5840,260.0456,100.0243,0,U,63412,999,7348,.49020616E-3,.1326E-3,0
STARLINK-33670,2025-065Q,2026-07-22T15:54:26.398656,15.27602698,.00010479,43.0040,64.6664,224.7411,135.3357,0,U,63413,999,7348,.61125334E-3,.16608E-3,0
STARLINK-33644,2025-065R,2026-07-21T00:12:59.116320,15.27589605,.00012025,42.9992,74.6063,267.1557,92.9157,0,U,63414,999,7322,.36593589E-3,.9824E-4,0
STARLINK-33664,2025-065S,2026-07-22T16:05:32.447616,15.27591408,.00012009,43.0025,64.7227,249.8462,110.2261,0,U,63415,999,7348,.7394117E-3,.20147E-3,0
STARLINK-33649,2025-065T,2026-07-22T22:03:39.369024,15.27590064,.00014053,43.0035,63.1327,262.7012,97.3680,0,U,63416,999,7352,.89523704E-3,.24462E-3,0
STARLINK-33535,2025-065U,2026-07-22T16:03:40.381632,15.27613306,.00009788,43.0034,64.6845,245.4040,114.6710,0,U,63417,999,7348,.5914281E-3,.16065E-3,0
STARLINK-33703,2025-065V,2026-07-22T21:15:46.433376,15.27545039,.00013738,43.0017,63.7473,272.6539,87.4156,0,U,63418,999,7351,.94351535E-3,.25764E-3,0
STARLINK-33709,2025-065W,2026-07-22T15:04:41.362464,15.27636117,.00011796,42.9975,65.2498,254.0678,106.0044,0,U,63419,999,7347,.79790193E-3,.21797E-3,0
STARLINK-33698,2025-065X,2026-07-22T15:35:55.739616,15.27570021,.0001689,43.0009,64.5411,268.5697,91.4961,0,U,63420,999,7348,.79125375E-3,.21569E-3,0
STARLINK-33606,2025-065Y,2026-07-22T16:01:50.610432,15.27595662,.00026271,43.0038,64.6832,289.5166,70.5402,0,U,63421,999,7348,.60912019E-3,.16546E-3,0
STARLINK-33686,2025-065Z,2026-07-22T16:16:38.390304,15.27592795,.0001888,43.0034,64.7636,272.7024,87.3611,0,U,63422,999,7348,.95218206E-3,.26043E-3,0
STARLINK-33675,2025-065AA,2026-07-22T21:47:01.104288,15.27629212,.00026981,43.0051,63.0463,278.8271,81.2275,0,U,63423,999,7352,.13665253E-2,.37592E-3,0
STARLINK-33655,2025-065AB,2026-07-22T21:32:24.698112,15.27599358,.00013775,42.9981,63.8187,272.6245,87.4449,0,U,63424,999,7351,.91866893E-3,.25119E-3,0
STARLINK-33608,2025-065AC,2026-07-22T08:22:08.488704,15.27599590,.00029422,43.0008,66.5776,266.0197,94.0319,0,U,63425,999,7343,.64080576E-3,.17425E-3,0
STARLINK-33615,2025-065AD,2026-07-22T15:10:14.410272,15.27632661,.00008066,42.9968,65.2763,264.3465,95.7295,0,U,63426,999,7347,.82059212E-3,.22424E-3,0
STARLINK-33682,2025-069A,2026-07-22T11:55:09.607008,15.34396088,.00007361,53.1576,228.5331,29.8769,330.2275,0,U,63433,999,7415,.10211274E-2,.34278E-3,0
STARLINK-33710,2025-069B,2026-07-22T07:16:46.512768,15.34420658,.00007598,53.1569,229.4562,102.1535,257.9552,0,U,63434,999,7412,.57404912E-3,.19081E-3,0
STARLINK-33733,2025-069C,2026-07-22T10:43:13.606464,15.34416801,.00009175,53.1579,230.3603,75.1510,284.9595,0,U,63435,999,7412,.57527523E-3,.1912E-3,0
STARLINK-33638,2025-069D,2026-07-22T11:43:00.657984,15.34420859,.00015416,53.1586,228.4787,29.6797,330.4293,0,U,63436,999,7415,.62742092E-3,.20895E-3,0
STARLINK-33726,2025-069E,2026-07-22T06:52:35.316768,15.49317817,.00010419,53.1581,227.2108,93.6762,266.4366,0,U,63437,999,7410,.11538147E-2,.64272E-3,0
